[{"OBJECT_NAME":"UOSAT 2 (UO-11)","OBJECT_ID":"1984-021B","EPOCH":"2026-03-09T22:36:42.882336","MEAN_MOTION":14.90508611,"ECCENTRICITY":0.00084315,"INCLINATION":97.795,"RA_OF_ASC_NODE":35.7082,"ARG_OF_PERICENTER":142.6564,"MEAN_ANOMALY":217.5241,"EPHEMERIS_TYPE":0,"CLASSIFICATION_TYPE":"U","NORAD_CAT_ID":14781,"ELEMENT_SET_NO":999,"REV_AT_EPOCH":24234,"BSTAR":0.00019045532,"MEAN_MOTION_DOT":1.805e-5,"MEAN_MOTION_DDOT":0},{"OBJECT_NAME":"SPIRONE","OBJECT_ID":"2025-274H","EPOCH":"2026-03-09T18:01:36.945120","MEAN_MOTION":14.93072072,"ECCENTRICITY":0.00119665,"INCLINATION":97.7435,"RA_OF_ASC_NODE":359.5247,"ARG_OF_PERICENTER":353.7886,"MEAN_ANOMALY":6.3183,"EPHEMERIS_TYPE":0,"CLASSIFICATION_TYPE":"U","NORAD_CAT_ID":66657,"ELEMENT_SET_NO":999,"REV_AT_EPOCH":1538,"BSTAR":0.00040236773,"MEAN_MOTION_DOT":4.139e-5,"MEAN_MOTION_DDOT":0}]
